CCSDS_OMM_VERS = 2.0
CREATION_DATE  = 
ORIGINATOR     = 

OBJECT_NAME    = 2025-274B
OBJECT_ID      = 2025-274B
CENTER_NAME    = EARTH
REF_FRAME      = TEME
TIME_SYSTEM    = UTC
MEAN_ELEMENT_THEORY = SGP/SGP4

EPOCH          = 2025-12-11T16:16:46.123104
MEAN_MOTION    = 14.91785025
ECCENTRICITY   = .0010633
INCLINATION    = 97.7379
RA_OF_ASC_NODE = 272.8866
ARG_OF_PERICENTER = 254.4704
MEAN_ANOMALY   = 105.5341

EPHEMERIS_TYPE = 0
CLASSIFICATION_TYPE = U
NORAD_CAT_ID   = 66651
ELEMENT_SET_NO = 999
REV_AT_EPOCH   = 224
BSTAR          = .6581767E-3
MEAN_MOTION_DOT = .659E-4
MEAN_MOTION_DDOT = 0

CCSDS_OMM_VERS = 2.0
CREATION_DATE  = 
ORIGINATOR     = 

OBJECT_NAME    = 2025-274C
OBJECT_ID      = 2025-274C
CENTER_NAME    = EARTH
REF_FRAME      = TEME
TIME_SYSTEM    = UTC
MEAN_ELEMENT_THEORY = SGP/SGP4

EPOCH          = 2025-12-11T17:51:23.187168
MEAN_MOTION    = 14.91888932
ECCENTRICITY   = .00103118
INCLINATION    = 97.7385
RA_OF_ASC_NODE = 272.9551
ARG_OF_PERICENTER = 261.2729
MEAN_ANOMALY   = 98.7322

EPHEMERIS_TYPE = 0
CLASSIFICATION_TYPE = U
NORAD_CAT_ID   = 66652
ELEMENT_SET_NO = 999
REV_AT_EPOCH   = 225
BSTAR          = .36360506E-3
MEAN_MOTION_DOT = .3623E-4
MEAN_MOTION_DDOT = 0

CCSDS_OMM_VERS = 2.0
CREATION_DATE  = 
ORIGINATOR     = 

OBJECT_NAME    = 2025-274D
OBJECT_ID      = 2025-274D
CENTER_NAME    = EARTH
REF_FRAME      = TEME
TIME_SYSTEM    = UTC
MEAN_ELEMENT_THEORY = SGP/SGP4

EPOCH          = 2025-12-11T16:14:42.336096
MEAN_MOTION    = 14.91896866
ECCENTRICITY   = .00111829
INCLINATION    = 97.7384
RA_OF_ASC_NODE = 272.8891
ARG_OF_PERICENTER = 257.4696
MEAN_ANOMALY   = 102.5272

EPHEMERIS_TYPE = 0
CLASSIFICATION_TYPE = U
NORAD_CAT_ID   = 66653
ELEMENT_SET_NO = 999
REV_AT_EPOCH   = 224
BSTAR          = .45752269E-3
MEAN_MOTION_DOT = .4576E-4
MEAN_MOTION_DDOT = 0

CCSDS_OMM_VERS = 2.0
CREATION_DATE  = 
ORIGINATOR     = 

OBJECT_NAME    = JACK E
OBJECT_ID      = 2025-274E
CENTER_NAME    = EARTH
REF_FRAME      = TEME
TIME_SYSTEM    = UTC
MEAN_ELEMENT_THEORY = SGP/SGP4

EPOCH          = 2025-12-11T16:12:17.136576
MEAN_MOTION    = 14.92072341
ECCENTRICITY   = .00117825
INCLINATION    = 97.7385
RA_OF_ASC_NODE = 272.8918
ARG_OF_PERICENTER = 259.1975
MEAN_ANOMALY   = 100.7918

EPHEMERIS_TYPE = 0
CLASSIFICATION_TYPE = U
NORAD_CAT_ID   = 66654
ELEMENT_SET_NO = 999
REV_AT_EPOCH   = 224
BSTAR          = .4718704E-3
MEAN_MOTION_DOT = .4743E-4
MEAN_MOTION_DDOT = 0

CCSDS_OMM_VERS = 2.0
CREATION_DATE  = 
ORIGINATOR     = 

OBJECT_NAME    = 2025-274F
OBJECT_ID      = 2025-274F
CENTER_NAME    = EARTH
REF_FRAME      = TEME
TIME_SYSTEM    = UTC
MEAN_ELEMENT_THEORY = SGP/SGP4

EPOCH          = 2025-12-10T14:24:20.623680
MEAN_MOTION    = 14.91412977
ECCENTRICITY   = .0004698
INCLINATION    = 97.7323
RA_OF_ASC_NODE = 271.8405
ARG_OF_PERICENTER = 22.2473
MEAN_ANOMALY   = 337.8948

EPHEMERIS_TYPE = 0
CLASSIFICATION_TYPE = U
NORAD_CAT_ID   = 66655
ELEMENT_SET_NO = 999
REV_AT_EPOCH   = 208
BSTAR          = .19321E-4
MEAN_MOTION_DOT = .138E-5
MEAN_MOTION_DDOT = 0

CCSDS_OMM_VERS = 2.0
CREATION_DATE  = 
ORIGINATOR     = 

OBJECT_NAME    = 2025-274G
OBJECT_ID      = 2025-274G
CENTER_NAME    = EARTH
REF_FRAME      = TEME
TIME_SYSTEM    = UTC
MEAN_ELEMENT_THEORY = SGP/SGP4

EPOCH          = 2025-12-11T14:33:04.434912
MEAN_MOTION    = 14.92262161
ECCENTRICITY   = .00124031
INCLINATION    = 97.7384
RA_OF_ASC_NODE = 272.8279
ARG_OF_PERICENTER = 261.3024
MEAN_ANOMALY   = 98.6790

EPHEMERIS_TYPE = 0
CLASSIFICATION_TYPE = U
NORAD_CAT_ID   = 66656
ELEMENT_SET_NO = 999
REV_AT_EPOCH   = 223
BSTAR          = .50921088E-3
MEAN_MOTION_DOT = .5148E-4
MEAN_MOTION_DDOT = 0

CCSDS_OMM_VERS = 2.0
CREATION_DATE  = 
ORIGINATOR     = 

OBJECT_NAME    = SPIRONE
OBJECT_ID      = 2025-274H
CENTER_NAME    = EARTH
REF_FRAME      = TEME
TIME_SYSTEM    = UTC
MEAN_ELEMENT_THEORY = SGP/SGP4

EPOCH          = 2025-12-11T17:43:35.609376
MEAN_MOTION    = 14.92442635
ECCENTRICITY   = .00108031
INCLINATION    = 97.7381
RA_OF_ASC_NODE = 272.9615
ARG_OF_PERICENTER = 279.7970
MEAN_ANOMALY   = 80.2029

EPHEMERIS_TYPE = 0
CLASSIFICATION_TYPE = U
NORAD_CAT_ID   = 66657
ELEMENT_SET_NO = 999
REV_AT_EPOCH   = 225
BSTAR          = .4937733E-3
MEAN_MOTION_DOT = .5011E-4
MEAN_MOTION_DDOT = 0

CCSDS_OMM_VERS = 2.0
CREATION_DATE  = 
ORIGINATOR     = 

OBJECT_NAME    = 2025-274J
OBJECT_ID      = 2025-274J
CENTER_NAME    = EARTH
REF_FRAME      = TEME
TIME_SYSTEM    = UTC
MEAN_ELEMENT_THEORY = SGP/SGP4

EPOCH          = 2025-12-11T17:41:03.726816
MEAN_MOTION    = 14.92613825
ECCENTRICITY   = .00113728
INCLINATION    = 97.7381
RA_OF_ASC_NODE = 272.9639
ARG_OF_PERICENTER = 282.7492
MEAN_ANOMALY   = 77.2456

EPHEMERIS_TYPE = 0
CLASSIFICATION_TYPE = U
NORAD_CAT_ID   = 66658
ELEMENT_SET_NO = 999
REV_AT_EPOCH   = 225
BSTAR          = .47071254E-3
MEAN_MOTION_DOT = .4796E-4
MEAN_MOTION_DDOT = 0

CCSDS_OMM_VERS = 2.0
CREATION_DATE  = 
ORIGINATOR     = 

OBJECT_NAME    = JACK K
OBJECT_ID      = 2025-274K
CENTER_NAME    = EARTH
REF_FRAME      = TEME
TIME_SYSTEM    = UTC
MEAN_ELEMENT_THEORY = SGP/SGP4

EPOCH          = 2025-12-11T19:14:53.218176
MEAN_MOTION    = 14.92799568
ECCENTRICITY   = .00120933
INCLINATION    = 97.7381
RA_OF_ASC_NODE = 273.0328
ARG_OF_PERICENTER = 283.9238
MEAN_ANOMALY   = 76.0636

EPHEMERIS_TYPE = 0
CLASSIFICATION_TYPE = U
NORAD_CAT_ID   = 66659
ELEMENT_SET_NO = 999
REV_AT_EPOCH   = 226
BSTAR          = .46013436E-3
MEAN_MOTION_DOT = .4709E-4
MEAN_MOTION_DDOT = 0

CCSDS_OMM_VERS = 2.0
CREATION_DATE  = 
ORIGINATOR     = 

OBJECT_NAME    = K-HERO
OBJECT_ID      = 2025-274L
CENTER_NAME    = EARTH
REF_FRAME      = TEME
TIME_SYSTEM    = UTC
MEAN_ELEMENT_THEORY = SGP/SGP4

EPOCH          = 2025-12-11T15:59:40.440192
MEAN_MOTION    = 14.92949324
ECCENTRICITY   = .00127402
INCLINATION    = 97.7385
RA_OF_ASC_NODE = 272.9035
ARG_OF_PERICENTER = 284.9144
MEAN_ANOMALY   = 75.0665

EPHEMERIS_TYPE = 0
CLASSIFICATION_TYPE = U
NORAD_CAT_ID   = 66660
ELEMENT_SET_NO = 999
REV_AT_EPOCH   = 224
BSTAR          = .44641678E-3
MEAN_MOTION_DOT = .4585E-4
MEAN_MOTION_DDOT = 0

CCSDS_OMM_VERS = 2.0
CREATION_DATE  = 
ORIGINATOR     = 

OBJECT_NAME    = SNUGLITE-III
OBJECT_ID      = 2025-274M
CENTER_NAME    = EARTH
REF_FRAME      = TEME
TIME_SYSTEM    = UTC
MEAN_ELEMENT_THEORY = SGP/SGP4

EPOCH          = 2025-12-11T15:57:30.678624
MEAN_MOTION    = 14.93088106
ECCENTRICITY   = .00134413
INCLINATION    = 97.7383
RA_OF_ASC_NODE = 272.9050
ARG_OF_PERICENTER = 286.0161
MEAN_ANOMALY   = 73.9578

EPHEMERIS_TYPE = 0
CLASSIFICATION_TYPE = U
NORAD_CAT_ID   = 66661
ELEMENT_SET_NO = 999
REV_AT_EPOCH   = 224
BSTAR          = .38412254E-3
MEAN_MOTION_DOT = .3952E-4
MEAN_MOTION_DDOT = 0

CCSDS_OMM_VERS = 2.0
CREATION_DATE  = 
ORIGINATOR     = 

OBJECT_NAME    = 2025-274N
OBJECT_ID      = 2025-274N
CENTER_NAME    = EARTH
REF_FRAME      = TEME
TIME_SYSTEM    = UTC
MEAN_ELEMENT_THEORY = SGP/SGP4

EPOCH          = 2025-12-11T15:56:39.675840
MEAN_MOTION    = 14.93139159
ECCENTRICITY   = .00138877
INCLINATION    = 97.7384
RA_OF_ASC_NODE = 272.9058
ARG_OF_PERICENTER = 285.6575
MEAN_ANOMALY   = 74.3112

EPHEMERIS_TYPE = 0
CLASSIFICATION_TYPE = U
NORAD_CAT_ID   = 66662
ELEMENT_SET_NO = 999
REV_AT_EPOCH   = 224
BSTAR          = .42305172E-3
MEAN_MOTION_DOT = .4364E-4
MEAN_MOTION_DDOT = 0

