2025-274B               
1 66651U 25274B   25345.67831161  .00006590  00000+0  65818-3 0  9996
2 66651  97.7379 272.8866 0010633 254.4704 105.5341 14.91785025  2245
2025-274C               
1 66652U 25274C   25345.74401837  .00003623  00000+0  36361-3 0  9993
2 66652  97.7385 272.9551 0010311 261.2729  98.7322 14.91888932  2255
2025-274D               
1 66653U 25274D   25345.67687889  .00004576  00000+0  45752-3 0  9991
2 66653  97.7384 272.8891 0011182 257.4696 102.5272 14.91896866  2240
JACK E                  
1 66654U 25274E   25345.67519834  .00004743  00000+0  47187-3 0  9996
2 66654  97.7385 272.8918 0011782 259.1975 100.7918 14.92072341  2249
2025-274F               
1 66655U 25274F   25344.60023870  .00000138  00000+0  19321-4 0  9993
2 66655  97.7323 271.8405 0004698  22.2473 337.8948 14.91412977  2082
2025-274G               
1 66656U 25274G   25345.60630133  .00005148  00000+0  50921-3 0  9997
2 66656  97.7384 272.8279 0012403 261.3024  98.6790 14.92262161  2234
SPIRONE                 
1 66657U 25274H   25345.73860659  .00005011  00000+0  49377-3 0  9992
2 66657  97.7381 272.9615 0010803 279.7970  80.2029 14.92442635  2252
2025-274J               
1 66658U 25274J   25345.73684869  .00004796  00000+0  47071-3 0  9998
2 66658  97.7381 272.9639 0011372 282.7492  77.2456 14.92613825  2255
JACK K                  
1 66659U 25274K   25345.80200484  .00004709  00000+0  46013-3 0  9993
2 66659  97.7381 273.0328 0012093 283.9238  76.0636 14.92799568  2262
K-HERO                  
1 66660U 25274L   25345.66644028  .00004585  00000+0  44642-3 0  9993
2 66660  97.7385 272.9035 0012740 284.9144  75.0665 14.92949324  2243
SNUGLITE-III            
1 66661U 25274M   25345.66493841  .00003952  00000+0  38412-3 0  9994
2 66661  97.7383 272.9050 0013441 286.0161  73.9578 14.93088106  2243
2025-274N               
1 66662U 25274N   25345.66434810  .00004364  00000+0  42305-3 0  9990
2 66662  97.7384 272.9058 0013887 285.6575  74.3112 14.93139159  2245
